[{"OBJECT_NAME":"STARLINK-30218","OBJECT_ID":"2023-119C","EPOCH":"2026-03-09T22:00:01.999584","MEAN_MOTION":15.18457139,"ECCENTRICITY":0.00017218,"INCLINATION":43.0002,"RA_OF_ASC_NODE":79.8846,"ARG_OF_PERICENTER":291.5867,"MEAN_ANOMALY":147.4307,"EPHEMERIS_TYPE":0,"CLASSIFICATION_TYPE":"U","NORAD_CAT_ID":57604,"ELEMENT_SET_NO":999,"REV_AT_EPOCH":567,"BSTAR":0.057976743,"MEAN_MOTION_DOT":0.01319901,"MEAN_MOTION_DDOT":0},{"OBJECT_NAME":"COSMOS 2251 DEB","OBJECT_ID":"1993-036AUQ","EPOCH":"2026-03-03T09:54:29.808000","MEAN_MOTION":15.20399634,"ECCENTRICITY":0.00017924,"INCLINATION":74.0063,"RA_OF_ASC_NODE":215.2278,"ARG_OF_PERICENTER":345.5252,"MEAN_ANOMALY":40.7842,"EPHEMERIS_TYPE":0,"CLASSIFICATION_TYPE":"U","NORAD_CAT_ID":35901,"ELEMENT_SET_NO":999,"REV_AT_EPOCH":87347,"BSTAR":0.0053747812,"MEAN_MOTION_DOT":0.00119078,"MEAN_MOTION_DDOT":0}]
